{
  "type": "FeatureCollection",
  "features": [
    {
      "type": "Feature",
      "properties": {
        "norad_id": 60182,
        "name": "ALOS-4 (DAICHI-4)",
        "group": "resource",
        "lat": 75.93726024566439,
        "lon": 52.98233454874077,
        "alt_km": 622.8356314990242,
        "timestamp": "2025-12-17T23:38:06.521013+00:00",
        "meta_object_name": "ALOS-4 (DAICHI-4)",
        "meta_object_id": "2024-123A",
        "meta_epoch": "2025-12-16T22:56:04.911360",
        "meta_mean_motion": 14.79477844,
        "meta_eccentricity": 0.00013999,
        "meta_inclination": 97.9225,
        "meta_ra_of_asc_node": 85.7427,
        "meta_arg_of_pericenter": 99.1223,
        "meta_mean_anomaly": 261.0147,
        "meta_ephemeris_type": 0,
        "meta_classification_type": "U",
        "meta_norad_cat_id": 60182,
        "meta_element_set_no": 999,
        "meta_rev_at_epoch": 7893,
        "meta_bstar": 0.00025137573,
        "meta_mean_motion_dot": 1.827e-05,
        "meta_mean_motion_ddot": 0,
        "tle_line1": "1 60182U 24123A   25350.95561240  .00001827  00000+0  25138-3 0  9995",
        "tle_line2": "2 60182  97.9225  85.7427 0001399  99.1223 261.0147 14.79477844 78937"
      },
      "geometry": {
        "type": "Point",
        "coordinates": [
          52.98233454874077,
          75.93726024566439
        ]
      }
    },
    {
      "type": "Feature",
      "properties": {
        "norad_id": 60452,
        "name": "LEGION 3",
        "group": "resource",
        "lat": 36.82149969196749,
        "lon": 53.495779938825265,
        "alt_km": 515.6518705850567,
        "timestamp": "2025-12-17T23:38:06.521024+00:00",
        "meta_object_name": "LEGION 3",
        "meta_object_id": "2024-146A",
        "meta_epoch": "2025-12-17T07:16:54.208416",
        "meta_mean_motion": 15.15811136,
        "meta_eccentricity": 0.00154011,
        "meta_inclination": 45.0024,
        "meta_ra_of_asc_node": 285.6664,
        "meta_arg_of_pericenter": 223.3718,
        "meta_mean_anomaly": 136.595,
        "meta_ephemeris_type": 0,
        "meta_classification_type": "U",
        "meta_norad_cat_id": 60452,
        "meta_element_set_no": 999,
        "meta_rev_at_epoch": 7442,
        "meta_bstar": 0.0002295067,
        "meta_mean_motion_dot": 4.207e-05,
        "meta_mean_motion_ddot": 0,
        "tle_line1": "1 60452U 24146A   25351.30340519  .00004207  00000+0  22951-3 0  9999",
        "tle_line2": "2 60452  45.0024 285.6664 0015401 223.3718 136.5950 15.15811136 74426"
      },
      "geometry": {
        "type": "Point",
        "coordinates": [
          53.495779938825265,
          36.82149969196749
        ]
      }
    },
    {
      "type": "Feature",
      "properties": {
        "norad_id": 60453,
        "name": "LEGION 4",
        "group": "resource",
        "lat": 37.69481089665864,
        "lon": 143.22734211694095,
        "alt_km": 517.425081561204,
        "timestamp": "2025-12-17T23:38:06.521034+00:00",
        "meta_object_name": "LEGION 4",
        "meta_object_id": "2024-146B",
        "meta_epoch": "2025-12-17T13:37:05.597760",
        "meta_mean_motion": 15.15875654,
        "meta_eccentricity": 0.00090409,
        "meta_inclination": 45.0398,
        "meta_ra_of_asc_node": 16.0172,
        "meta_arg_of_pericenter": 336.2934,
        "meta_mean_anomaly": 23.7528,
        "meta_ephemeris_type": 0,
        "meta_classification_type": "U",
        "meta_norad_cat_id": 60453,
        "meta_element_set_no": 999,
        "meta_rev_at_epoch": 7331,
        "meta_bstar": 0.00021226004,
        "meta_mean_motion_dot": 3.871e-05,
        "meta_mean_motion_ddot": 0,
        "tle_line1": "1 60453U 24146B   25351.56742590  .00003871  00000+0  21226-3 0  9993",
        "tle_line2": "2 60453  45.0398  16.0172 0009040 336.2934  23.7528 15.15875654 73317"
      },
      "geometry": {
        "type": "Point",
        "coordinates": [
          143.22734211694095,
          37.69481089665864
        ]
      }
    },
    {
      "type": "Feature",
      "properties": {
        "norad_id": 60989,
        "name": "SENTINEL-2C",
        "group": "resource",
        "lat": 4.928278419338632,
        "lon": 63.64685909241012,
        "alt_km": 791.2716477739668,
        "timestamp": "2025-12-17T23:38:06.521047+00:00",
        "meta_object_name": "SENTINEL-2C",
        "meta_object_id": "2024-157A",
        "meta_epoch": "2025-12-17T15:13:13.141632",
        "meta_mean_motion": 14.30819503,
        "meta_eccentricity": 0.00012278,
        "meta_inclination": 98.5679,
        "meta_ra_of_asc_node": 64.0462,
        "meta_arg_of_pericenter": 96.8393,
        "meta_mean_anomaly": 263.2929,
        "meta_ephemeris_type": 0,
        "meta_classification_type": "U",
        "meta_norad_cat_id": 60989,
        "meta_element_set_no": 999,
        "meta_rev_at_epoch": 6702,
        "meta_bstar": 6.2207357e-05,
        "meta_mean_motion_dot": 1.19e-06,
        "meta_mean_motion_ddot": 0,
        "tle_line1": "1 60989U 24157A   25351.63417988  .00000119  00000+0  62207-4 0  9994",
        "tle_line2": "2 60989  98.5679  64.0462 0001227  96.8393 263.2929 14.30819503 67022"
      },
      "geometry": {
        "type": "Point",
        "coordinates": [
          63.64685909241012,
          4.928278419338632
        ]
      }
    },
    {
      "type": "Feature",
      "properties": {
        "norad_id": 61735,
        "name": "IONOSFERA-M 1",
        "group": "resource",
        "lat": 60.006074213892816,
        "lon": 57.24967454420856,
        "alt_km": 810.4714477876851,
        "timestamp": "2025-12-17T23:38:06.521057+00:00",
        "meta_object_name": "IONOSFERA-M 1",
        "meta_object_id": "2024-199A",
        "meta_epoch": "2025-12-17T14:38:22.657344",
        "meta_mean_motion": 14.22715122,
        "meta_eccentricity": 7.218e-05,
        "meta_inclination": 98.7401,
        "meta_ra_of_asc_node": 221.4208,
        "meta_arg_of_pericenter": 14.0683,
        "meta_mean_anomaly": 346.0514,
        "meta_ephemeris_type": 0,
        "meta_classification_type": "U",
        "meta_norad_cat_id": 61735,
        "meta_element_set_no": 999,
        "meta_rev_at_epoch": 10188,
        "meta_bstar": 4.4181648e-05,
        "meta_mean_motion_dot": 5.5e-07,
        "meta_mean_motion_ddot": 0,
        "tle_line1": "1 61735U 24199A   25351.60998446  .00000055  00000+0  44182-4 0  9991",
        "tle_line2": "2 61735  98.7401 221.4208 0000721  14.0683 346.0514 14.22715122101882"
      },
      "geometry": {
        "type": "Point",
        "coordinates": [
          57.24967454420856,
          60.006074213892816
        ]
      }
    },
    {
      "type": "Feature",
      "properties": {
        "norad_id": 61736,
        "name": "IONOSFERA-M 2",
        "group": "resource",
        "lat": -57.54758373863486,
        "lon": -124.2942492029927,
        "alt_km": 824.4313318232744,
        "timestamp": "2025-12-17T23:38:06.521067+00:00",
        "meta_object_name": "IONOSFERA-M 2",
        "meta_object_id": "2024-199B",
        "meta_epoch": "2025-12-17T15:28:15.516192",
        "meta_mean_motion": 14.2271727,
        "meta_eccentricity": 0.00017515,
        "meta_inclination": 98.7407,
        "meta_ra_of_asc_node": 221.3676,
        "meta_arg_of_pericenter": 104.2388,
        "meta_mean_anomaly": 255.8984,
        "meta_ephemeris_type": 0,
        "meta_classification_type": "U",
        "meta_norad_cat_id": 61736,
        "meta_element_set_no": 999,
        "meta_rev_at_epoch": 10501,
        "meta_bstar": 4.3219974e-05,
        "meta_mean_motion_dot": 5.3e-07,
        "meta_mean_motion_ddot": 0,
        "tle_line1": "1 61736U 24199B   25351.64462403  .00000053  00000+0  43220-4 0  9995",
        "tle_line2": "2 61736  98.7407 221.3676 0001751 104.2388 255.8984 14.22717270105018"
      },
      "geometry": {
        "type": "Point",
        "coordinates": [
          -124.2942492029927,
          -57.54758373863486
        ]
      }
    },
    {
      "type": "Feature",
      "properties": {
        "norad_id": 63772,
        "name": "BIOMASS",
        "group": "resource",
        "lat": -76.07346089324443,
        "lon": -37.98453174107327,
        "alt_km": 677.0553693619149,
        "timestamp": "2025-12-17T23:38:06.521078+00:00",
        "meta_object_name": "BIOMASS",
        "meta_object_id": "2025-090A",
        "meta_epoch": "2025-12-17T12:38:31.581024",
        "meta_mean_motion": 14.67538185,
        "meta_eccentricity": 0.00011291,
        "meta_inclination": 98.07,
        "meta_ra_of_asc_node": 176.4666,
        "meta_arg_of_pericenter": 81.6745,
        "meta_mean_anomaly": 278.4588,
        "meta_ephemeris_type": 0,
        "meta_classification_type": "U",
        "meta_norad_cat_id": 63772,
        "meta_element_set_no": 999,
        "meta_rev_at_epoch": 3404,
        "meta_bstar": 0.00020217054,
        "meta_mean_motion_dot": 1.099e-05,
        "meta_mean_motion_ddot": 0,
        "tle_line1": "1 63772U 25090A   25351.52675441  .00001099  00000+0  20217-3 0  9994",
        "tle_line2": "2 63772  98.0700 176.4666 0001129  81.6745 278.4588 14.67538185 34042"
      },
      "geometry": {
        "type": "Point",
        "coordinates": [
          -37.98453174107327,
          -76.07346089324443
        ]
      }
    }
  ]
}